APRIZESAT 2             
1 28366U 04025A   26198.90002854  .00000086  00000+0  39677-4 0  9999
2 28366  98.1046   3.1459 0106105 156.7305 203.8739 14.38048386156051
SAUDICOMSAT 1           
1 28369U 04025D   26198.47054222  .00000117  00000+0  38153-4 0  9993
2 28369  98.5778 209.4202 0030930 291.6703  68.1201 14.55494401168534
SAUDICOMSAT 2           
1 28370U 04025E   26198.83296755  .00000084  00000+0  33941-4 0  9997
2 28370  98.6643 211.9458 0055797 165.7124 194.5663 14.49995103164546
APRIZESAT 1             
1 28372U 04025G   26198.89557664  .00000099  00000+0  36442-4 0  9999
2 28372  98.6310 210.4574 0045711  62.6732 297.9105 14.51792883166361
NANOSAT-1               
1 28493U 04049B   26198.92698875  .00000459  00000+0  67647-4 0  9994
2 28493  98.2314 336.3469 0004012 175.3136 184.8114 14.80213681159996
SAUDICOMSAT 7           
1 31119U 07012C   26198.89256004  .00000238  00000+0  51695-4 0  9997
2 31119  98.3800 173.6562 0057028 100.0337 260.7307 14.66138167 26939
SAUDICOMSAT 6           
1 31121U 07012E   26198.87611788  .00000155  00000+0  39704-4 0  9997
2 31121  98.4119 166.9679 0070626 230.6192 128.8740 14.62585712 24670
SAUDICOMSAT 5           
1 31124U 07012H   26198.89111367  .00000292  00000+0  59072-4 0  9992
2 31124  98.3512 174.3958 0048068  30.4981 329.9003 14.68194071 28107
SAUDICOMSAT 3           
1 31125U 07012J   26198.86635843  .00000325  00000+0  61523-4 0  9991
2 31125  98.3166 174.9168 0038096 316.6201  43.2008 14.70751822 29339
SAUDICOMSAT 4           
1 31127U 07012L   26198.89971422  .00000191  00000+0  44752-4 0  9998
2 31127  98.4005 172.1003 0063760 161.3240 199.0322 14.64536688 25784
APRIZESAT 4             
1 35684U 09041D   26198.93813731  .00000335  00000+0  46706-4 0  9998
2 35684  98.1402 274.8702 0042404 220.4323 139.3737 14.83915971915929
APRIZESAT 3             
1 35686U 09041F   26198.92737513  .00000419  00000+0  41722-4 0  9998
2 35686  98.2105 353.6317 0060727 326.8056  32.9360 14.96314780920978
S-NET D                 
1 43186U 18014G   26198.60997463  .00002521  00000+0  13124-3 0  9999
2 43186  97.5327 103.2117 0006215 274.2830  85.7692 15.16929875463375
S-NET B                 
1 43187U 18014H   26198.62202689  .00002508  00000+0  13071-3 0  9997
2 43187  97.5333 103.2112 0006833 268.3508  91.6942 15.16899456463375
S-NET A                 
1 43188U 18014J   26198.60868445  .00002499  00000+0  13012-3 0  9998
2 43188  97.5341 103.4127 0006726 269.2169  90.8294 15.16938167463371
S-NET C                 
1 43189U 18014K   26198.62606724  .00002431  00000+0  12681-3 0  9998
2 43189  97.5360 103.5091 0008107 260.1574  99.8744 15.16890487461929
SALSAT                  
1 46495U 20068K   26198.94923409  .00004039  00000+0  14103-3 0  9997
2 46495  97.8860 203.8975 0009519 182.9906 177.1278 15.30194622320068
OOV-CUBE (TUBSAT-30)    
1 60240U 24128F   26198.92842390  .00000929  00000+0  83519-4 0  9991
2 60240  61.9941 118.3707 0040777 140.6184 219.7884 15.02880169110731
LPNTSAT-001 (IOD-1)     
1 68408U 26065A   26198.91401277  .00001297  00000+0  65700-4 0  9992
2 68408  97.3976  78.7699 0014642 255.8126 104.1482 15.18676475 16929
CHUANG XIN 26 (CX-26)   
1 69972U 26158A   26194.51442212 -.00000212  00000+0 -21871-4 0  9997
2 69972  49.9860 287.5119 0004887 294.2352  65.8050 14.25122238   462
